ONEWEB-0291             
1 49081U 21075G   25145.81289106  .00000028  00000+0  39545-4 0  9998
2 49081  87.9058  82.9816 0002280  82.6271 277.5119 13.17650915182598
ONEWEB-0293             
1 49082U 21075H   25145.53445611  .00000026  00000+0  34509-4 0  9996
2 49082  87.9064  83.0680 0002110  84.1998 275.9374 13.17650715182584
ONEWEB-0294             
1 49083U 21075J   25145.73966389 -.00000358  00000+0 -10297-2 0  9995
2 49083  87.8884  67.7249 0002312  90.3373 269.8020 13.12441494183751
ONEWEB-0295             
1 49084U 21075K   25145.53359097  .00000088  00000+0  19372-3 0  9998
2 49084  87.9079  83.0588 0002428  79.4660 280.6745 13.17651187182549
ONEWEB-0296             
1 49085U 21075L   25145.72020850 -.00000223  00000+0 -65598-3 0  9996
2 49085  87.8887  67.7367 0002620  82.1225 278.0201 13.12443360183751
ONEWEB-0297             
1 49086U 21075M   25145.75103702  .00000011  00000+0 -53172-5 0  9999
2 49086  87.8894  67.7631 0002026  76.6418 283.4936 13.12444717184366
ONEWEB-0298             
1 49087U 21075N   25145.53795241  .00000055  00000+0  10860-3 0  9993
2 49087  87.9064  83.0650 0002108  74.8457 285.2907 13.17648592182574
ONEWEB-0299             
1 49088U 21075P   25145.53950450  .00000042  00000+0  74376-4 0  9998
2 49088  87.9059  83.0192 0002176  75.9146 284.2228 13.17648913182552
